OBJECT_NAME,OBJECT_ID,EPOCH,MEAN_MOTION,ECCENTRICITY,INCLINATION,RA_OF_ASC_NODE,ARG_OF_PERICENTER,MEAN_ANOMALY,EPHEMERIS_TYPE,CLASSIFICATION_TYPE,NORAD_CAT_ID,ELEMENT_SET_NO,REV_AT_EPOCH,BSTAR,MEAN_MOTION_DOT,MEAN_MOTION_DDOT
IRIDIUM 154,2018-061F,2026-06-16T04:26:30.247584,14.34214747,.0002247,86.3974,57.2275,92.9855,267.1598,0,U,43574,999,41326,.70428703E-4,.217E-5,0
IRIDIUM 163,2018-061G,2026-06-16T05:39:34.163712,14.34216398,.00022479,86.3960,57.1200,84.0709,276.0743,0,U,43575,999,41324,.11528356E-4,.52E-6,0
IRIDIUM 156,2018-061H,2026-06-16T05:03:02.433312,14.34217708,.0002032,86.3959,57.1380,81.9789,278.1637,0,U,43576,999,41323,.29263409E-4,.102E-5,0
IRIDIUM 164,2018-061J,2026-06-16T04:35:38.344128,14.34218640,.00020954,86.3962,57.1862,88.9353,271.2083,0,U,43577,999,41327,.39575519E-4,.131E-5,0
IRIDIUM 159,2018-061K,2026-06-16T05:30:26.515584,14.34217703,.00022739,86.3960,57.1070,83.4277,276.7178,0,U,43578,999,41324,.20658482E-4,.78E-6,0
IRIDIUM 180,2019-002A,2026-06-16T05:29:42.811872,14.34218860,.00022449,86.3971,353.9982,88.8176,271.3277,0,U,43922,999,38885,.62974469E-4,.196E-5,0
IRIDIUM 176,2019-002B,2026-06-15T22:27:09.526752,14.72265647,.0002265,86.6090,354.0646,92.3052,267.8424,0,U,43923,999,39906,.10057E-3,.659E-5,0
IRIDIUM 168,2019-002C,2026-06-16T05:20:34.825056,14.34218299,.00021794,86.3974,354.0782,89.1101,271.0344,0,U,43924,999,38883,.11560602E-4,.52E-6,0
IRIDIUM 173,2019-002D,2026-06-16T06:42:46.807488,14.34218619,.00021919,86.3969,353.9431,87.1305,273.0142,0,U,43925,999,38882,.39947583E-4,.132E-5,0
IRIDIUM 169,2019-002E,2026-06-16T03:20:40.020576,14.38608568,.00018889,86.4224,25.6315,72.1552,287.9852,0,U,43926,999,39007,.71703766E-4,.239E-5,0
IRIDIUM 172,2019-002F,2026-06-16T01:32:14.836704,14.34218142,.00022489,86.3969,354.0413,88.8288,271.3165,0,U,43927,999,38880,.43313489E-4,.141E-5,0
IRIDIUM 175,2019-002G,2026-06-16T07:19:49.589184,14.43612278,.00023802,86.4511,290.8895,181.9012,178.2180,0,U,43928,999,39885,.74195176E-4,.271E-5,0
IRIDIUM 171,2019-002H,2026-06-16T06:06:14.876640,14.34218033,.00020255,86.3979,354.2678,90.3830,269.7598,0,U,43929,999,38882,.45630709E-4,.148E-5,0
IRIDIUM 170,2019-002J,2026-06-16T00:13:55.918272,14.72266193,.00023494,86.6091,354.0360,88.9217,271.2269,0,U,43930,999,39908,.99468711E-4,.652E-5,0
IRIDIUM 167,2019-002K,2026-06-16T05:57:06.848352,14.34217628,.00017687,86.3967,353.9867,91.2035,268.9363,0,U,43931,999,38882,-.3543414E-5,.1E-6,0
IRIDIUM 181,2023-068S,2026-06-16T04:55:26.827968,14.43312157,.00023458,86.4500,57.2010,88.4273,271.7196,0,U,56726,999,16229,.10099376E-3,.36E-5,0
IRIDIUM 177,2023-068T,2026-06-16T04:09:37.340640,14.80228723,.00023659,86.1961,329.2729,87.0544,273.0948,0,U,56727,999,16621,.11781942E-3,.922E-5,0
IRIDIUM 174,2023-068U,2026-06-16T01:34:02.149824,14.72262603,.00024675,86.6098,354.1601,84.0365,276.1133,0,U,56728,999,16585,.10254236E-3,.671E-5,0
IRIDIUM 178,2023-068V,2026-06-16T02:16:37.735680,14.80232140,.00026357,86.6538,25.8167,86.0088,274.1435,0,U,56729,999,16620,.10663292E-3,.836E-5,0
IRIDIUM 179,2023-068W,2026-06-16T03:46:11.876160,14.80235775,.00024313,86.6779,34.7675,88.6802,271.4698,0,U,56730,999,16621,.10327085E-3,.811E-5,0
