IRIDIUM 154             
1 43574U 18061F   26167.18507231  .00000217  00000+0  70429-4 0  9993
2 43574  86.3974  57.2275 0002247  92.9855 267.1598 14.34214747413264
IRIDIUM 163             
1 43575U 18061G   26167.23581208  .00000052  00000+0  11528-4 0  9998
2 43575  86.3960  57.1200 0002247  84.0709 276.0743 14.34216398413240
IRIDIUM 156             
1 43576U 18061H   26167.21044483  .00000102  00000+0  29263-4 0  9997
2 43576  86.3959  57.1380 0002032  81.9789 278.1637 14.34217708413234
IRIDIUM 164             
1 43577U 18061J   26167.19141602  .00000131  00000+0  39576-4 0  9996
2 43577  86.3962  57.1862 0002095  88.9353 271.2083 14.34218640413276
IRIDIUM 159             
1 43578U 18061K   26167.22947356  .00000078  00000+0  20658-4 0  9992
2 43578  86.3960  57.1070 0002273  83.4277 276.7178 14.34217703413240
IRIDIUM 180             
1 43922U 19002A   26167.22896773  .00000196  00000+0  62974-4 0  9995
2 43922  86.3971 353.9982 0002244  88.8176 271.3277 14.34218860388853
IRIDIUM 176             
1 43923U 19002B   26166.93552693  .00000659  00000+0  10057-3 0  9991
2 43923  86.6090 354.0646 0002265  92.3052 267.8424 14.72265647399060
IRIDIUM 168             
1 43924U 19002C   26167.22262529  .00000052  00000+0  11561-4 0  9990
2 43924  86.3974 354.0782 0002179  89.1101 271.0344 14.34218299388833
IRIDIUM 173             
1 43925U 19002D   26167.27970842  .00000132  00000+0  39948-4 0  9998
2 43925  86.3969 353.9431 0002191  87.1305 273.0142 14.34218619388828
IRIDIUM 169             
1 43926U 19002E   26167.13935209  .00000239  00000+0  71704-4 0  9996
2 43926  86.4224  25.6315 0001888  72.1552 287.9852 14.38608568390070
IRIDIUM 172             
1 43927U 19002F   26167.06406061  .00000141  00000+0  43313-4 0  9995
2 43927  86.3969 354.0413 0002248  88.8288 271.3165 14.34218142388808
IRIDIUM 175             
1 43928U 19002G   26167.30543506  .00000271  00000+0  74195-4 0  9995
2 43928  86.4511 290.8895 0002380 181.9012 178.2180 14.43612278398857
IRIDIUM 171             
1 43929U 19002H   26167.25433885  .00000148  00000+0  45631-4 0  9994
2 43929  86.3979 354.2678 0002025  90.3830 269.7598 14.34218033388822
IRIDIUM 170             
1 43930U 19002J   26167.00967498  .00000652  00000+0  99469-4 0  9999
2 43930  86.6091 354.0360 0002349  88.9217 271.2269 14.72266193399084
IRIDIUM 167             
1 43931U 19002K   26167.24799593  .00000010  00000+0 -35434-5 0  9997
2 43931  86.3967 353.9867 0001768  91.2035 268.9363 14.34217628388828
IRIDIUM 181             
1 56726U 23068S   26167.20517162  .00000360  00000+0  10099-3 0  9991
2 56726  86.4500  57.2010 0002345  88.4273 271.7196 14.43312157162296
IRIDIUM 177             
1 56727U 23068T   26167.17334885  .00000922  00000+0  11782-3 0  9991
2 56727  86.1961 329.2729 0002365  87.0544 273.0948 14.80228723166214
IRIDIUM 174             
1 56728U 23068U   26167.06530266  .00000671  00000+0  10254-3 0  9995
2 56728  86.6098 354.1601 0002467  84.0365 276.1133 14.72262603165853
IRIDIUM 178             
1 56729U 23068V   26167.09488120  .00000836  00000+0  10663-3 0  9997
2 56729  86.6538  25.8167 0002635  86.0088 274.1435 14.80232140166208
IRIDIUM 179             
1 56730U 23068W   26167.15708190  .00000811  00000+0  10327-3 0  9998
2 56730  86.6779  34.7675 0002431  88.6802 271.4698 14.80235775166215
